IRIDIUM 126             
1 42809U 17039G   24301.58128055  .00000178  00000+0  56332-4 0  9995
2 42809  86.3967 243.3237 0002187  93.2206 266.9240 14.34217032384290
IRIDIUM 124             
1 42810U 17039H   24301.42055895  .00001455  00000+0  42657-3 0  9994
2 42810  86.4553 180.2250 0002439  73.7133 286.4336 14.43284536388896
IRIDIUM 128             
1 42811U 17039J   24301.43248212  .00000177  00000+0  56008-4 0  9999
2 42811  86.3921 274.9239 0002573  89.1733 270.9758 14.34214875384306
IRIDIUM 121             
1 42812U 17039K   24301.60030229  .00000895  00000+0  31261-3 0  9996
2 42812  86.3973 243.3394 0001864  83.1237 277.0171 14.34216882384173
IRIDIUM 133             
1 42955U 17061A   24301.46419692  .00000167  00000+0  52568-4 0  9994
2 42955  86.3919 275.0137 0002213  86.5226 273.6223 14.34216983369100
IRIDIUM 100             
1 42956U 17061B   24301.38808591 -.00000064  00000+0 -29859-4 0  9991
2 42956  86.3917 274.9779 0002408  87.9904 272.1567 14.34215338369099
IRIDIUM 122             
1 42957U 17061C   24301.42614089  .00000157  00000+0  48859-4 0  9996
2 42957  86.3919 274.9609 0002386  91.3053 268.8416 14.34216028369107
IRIDIUM 129             
1 42958U 17061D   24301.38174161  .00001080  00000+0  37840-3 0  9997
2 42958  86.3917 275.0400 0001992  93.0556 267.0868 14.34217784369119
